LEMUR-2-DEMBITZ         
1 42842U 17042T   26068.47492167  .00020231  00000+0  76561-3 0  9991
2 42842  97.3807 250.9241 0006961  17.1421 343.0051 15.26947128473114
STARLINK-31724          
1 59554U 24074W   26068.03164661 -.00000095  00000+0  60951-5 0  9994
2 59554  43.0020 311.2051 0002383  41.9206 318.1827 15.27562029106321
